Name,Street,AddressLine2,City,Postcode,URL
"Ambleside Salutation Hotel & Spa, WorldHotels Distinctive",,,,,https://www.bestwestern.co.uk/hotels/ambleside-salutation-hotel-worldhotels-distinctive-83750/
"Worcester Bank House Hotel Spa & Golf, BW Premier Collection...",,,,,https://www.bestwestern.co.uk/hotels/bank-house-hotel-spa-golf-bw-premier-collection-by-best-western-83994/
"Barton Manor & Spa, BW Signature Collection by Best Western",,,,,https://www.bestwestern.co.uk/hotels/barton-manor-spa-bw-signature-collection-by-best-western-84324/
"Beachcroft Hotel, BW Signature Collection by Best Western",,,,,https://www.bestwestern.co.uk/hotels/beachcroft-hotel-bw-signature-collection-by-best-western-83909/
"Beamish Hall Hotel, BW Premier Collection by Best Western",,,,,https://www.bestwestern.co.uk/hotels/beamish-hall-hotel-bw-premier-collection-by-best-western-83931/
Best Western Abbots Barton Hotel,,,,,https://www.bestwestern.co.uk/hotels/best-western-abbots-barton-hotel-83796/
Best Western Aberavon Beach Hotel,,,,,https://www.bestwestern.co.uk/hotels/best-western-aberavon-beach-hotel-83465/
Best Western Andover Hotel,,,,,https://www.bestwestern.co.uk/hotels/best-western-andover-hotel-84223/
Best Western Annesley House Hotel,,,,,https://www.bestwestern.co.uk/hotels/best-western-annesley-house-hotel-83663/
Best Western Appleby Park,,,,,https://www.bestwestern.co.uk/hotels/best-western-appleby-park-hotel-83948/
Best Western Balgeddie House Hotel,,,,,https://www.bestwestern.co.uk/hotels/best-western-balgeddie-house-hotel-83535/
Best Western Manchester Bury Bolholt Country Park Hotel,,,,,https://www.bestwestern.co.uk/hotels/best-western-bolholt-country-park-hotel-83810/
Best Western Bradford Guide Post Hotel,,,,,https://www.bestwestern.co.uk/hotels/best-western-bradford-guide-post-hotel-83804/
Best Western Brome Grange Hotel,,,,,https://www.bestwestern.co.uk/hotels/best-western-brome-grange-hotel-83967/
Best Western Buckingham Palace Rd,,,,,https://www.bestwestern.co.uk/hotels/best-western-buckingham-palace-rd-84244/
Best Western Carlton Hotel,,,,,https://www.bestwestern.co.uk/hotels/best-western-carlton-hotel-83802/
Best Western Chilworth Manor Hotel,,,,,https://www.bestwestern.co.uk/hotels/best-western-chilworth-manor-hotel-83920/
Best Western Chiswick Palace & Suites,,,,,https://www.bestwestern.co.uk/hotels/best-western-chiswick-palace-suites-83906/
Best Western Claydon Hotel,,,,,https://www.bestwestern.co.uk/hotels/best-western-claydon-hotel-83676/
Best Western Corona,,,,,https://www.bestwestern.co.uk/hotels/best-western-corona-83799/
Best Western Ebbw Vale,,,,,https://www.bestwestern.co.uk/hotels/best-western-ebbw-vale-84397/
Best Western Glasgow South Eglinton Arms Hotel,,,,,https://www.bestwestern.co.uk/hotels/best-western-eglinton-arms-hotel-83533/
Best Western Forest And Vale Hotel,,,,,https://www.bestwestern.co.uk/hotels/best-western-forest-and-vale-hotel-83691/
Best Western Frodsham Forest Hills Hotel,,,,,https://www.bestwestern.co.uk/hotels/best-western-forest-hills-hotel-83935/
Best Western Garfield House Hotel,,,,,https://www.bestwestern.co.uk/hotels/best-western-garfield-house-hotel-83514/
Best Western George Hotel,,,,,https://www.bestwestern.co.uk/hotels/best-western-george-hotel-83695/
Best Western Glasgow Hotel,,,,,https://www.bestwestern.co.uk/hotels/best-western-glasgow-hotel-84384/
Best Western Greater London Hotel,,,,,https://www.bestwestern.co.uk/hotels/best-western-greater-london-hotel-83970/
Best Western Heath Court Hotel,,,,,https://www.bestwestern.co.uk/hotels/best-western-heath-court-hotel-83705/
Best Western Henbury Lodge Hotel,,,,,https://www.bestwestern.co.uk/hotels/best-western-henbury-lodge-hotel-83915/
Best Western The Hilcroft Hotel West Lothian,,,,,https://www.bestwestern.co.uk/hotels/best-western-hilcroft-hotel-83482/
Best Western Welwyn Garden City Homestead Court Hotel,,,,,https://www.bestwestern.co.uk/hotels/best-western-homestead-court-hotel-83816/
Best Western Hotel de Havelet,,,,,https://www.bestwestern.co.uk/hotels/best-western-hotel-de-havelet-83607/
Best Western Weymouth Hotel Rembrandt,,,,,https://www.bestwestern.co.uk/hotels/best-western-hotel-rembrandt-83952/
Best Western Inverness Palace Hotel & Spa,,,,,https://www.bestwestern.co.uk/hotels/best-western-inverness-palace-hotel-spa-83520/
Best Western Ipswich Hotel,,,,,https://www.bestwestern.co.uk/hotels/best-western-ipswich-hotel-84217/
Best Western Kensington Olympia,,,,,https://www.bestwestern.co.uk/hotels/best-western-kensington-olympia-hotel-84309/
Best Western Kilima Hotel,,,,,https://www.bestwestern.co.uk/hotels/best-western-kilima-hotel-83712/
Best Western Kings Manor Hotel,,,,,https://www.bestwestern.co.uk/hotels/best-western-kings-manor-hotel-83448/
Best Western Lamphey Court Hotel & Spa,,,,,https://www.bestwestern.co.uk/hotels/best-western-lamphey-court-hotel-spa-83424/
Best Western Limpley Stoke Hotel,,,,,https://www.bestwestern.co.uk/hotels/best-western-limpley-stoke-hotel-83722/
Best Western London Heathrow Ariel Hotel,,,,,https://www.bestwestern.co.uk/hotels/best-western-london-heathrow-ariel-hotel-84316/
Best Western London Highbury,,,,,https://www.bestwestern.co.uk/hotels/best-western-london-highbury-83939/
Best Western Lancaster Morecambe Lothersdale Hotel,,,,,https://www.bestwestern.co.uk/hotels/best-western-lothersdale-hotel-84212/
Best Western Manor Hotel & Suites,,,,,https://www.bestwestern.co.uk/hotels/best-western-manor-hotel-suites-83642/
Best Western Moore Place Hotel,,,,,https://www.bestwestern.co.uk/hotels/best-western-moore-place-hotel-83775/
Best Western Moores Central Hotel,,,,,https://www.bestwestern.co.uk/hotels/best-western-moores-central-hotel-83731/
Best Western Motherwell Centre Moorings Hotel,,,,,https://www.bestwestern.co.uk/hotels/best-western-moorings-hotel-83544/
Best Western Mornington Hotel,,,,,https://www.bestwestern.co.uk/hotels/best-western-mornington-hotel-83187/
Best Western New Holmwood Hotel,,,,,https://www.bestwestern.co.uk/hotels/best-western-new-holmwood-hotel-83365/
Best Western New Kent Hotel,,,,,https://www.bestwestern.co.uk/hotels/best-western-new-kent-hotel-83326/
Best Western Northfields Ealing Hotel,,,,,https://www.bestwestern.co.uk/hotels/best-western-northfields-ealing-hotel-84354/
Best Western Palace Hotel & Casino,,,,,https://www.bestwestern.co.uk/hotels/best-western-palace-hotel-casino-83942/
Best Western Plough & Harrow Hotel,,,,,https://www.bestwestern.co.uk/hotels/best-western-plough-harrow-hotel-84227/
Best Western Plus Angel Hotel,,,,,https://www.bestwestern.co.uk/hotels/best-western-plus-angel-hotel-83654/
Best Western Plus Aston Hall Hotel,,,,,https://www.bestwestern.co.uk/hotels/best-western-plus-aston-hall-hotel-83959/
Best Western Plus Bentley Hotel & Spa,,,,,https://www.bestwestern.co.uk/hotels/best-western-plus-bentley-hotel-spa-83656/
Best Western Plus Centurion Hotel,,,,,https://www.bestwestern.co.uk/hotels/best-western-plus-centurion-hotel-83875/
Best Western Plus Citrus Hotel Eastbourne,,,,,https://www.bestwestern.co.uk/hotels/best-western-plus-citrus-hotel-eastbourne-84388/
Best Western Plus Delmere Hotel,,,,,https://www.bestwestern.co.uk/hotels/best-western-plus-delmere-hotel-83683/
Best Western Plus Grims Dyke Hotel,,,,,https://www.bestwestern.co.uk/hotels/best-western-plus-grims-dyke-hotel-83956/
Best Western Plus Dunfermline Crossford Keavil House Hotel,,,,,https://www.bestwestern.co.uk/hotels/best-western-plus-keavil-house-hotel-83418/
Best Western Plus Kenwick Park Hotel,,,,,https://www.bestwestern.co.uk/hotels/best-western-plus-kenwick-park-hotel-83858/
Best Western Plus Lancashire Manor Hotel,,,,,https://www.bestwestern.co.uk/hotels/best-western-plus-lancashire-manor-hotel-83923/
Best Western Plus Buxton Lee Wood Hotel,,,,,https://www.bestwestern.co.uk/hotels/best-western-plus-lee-wood-hotel-83174/
Best Western Plus Birmingham NEC Meriden Manor Hotel,,,,,https://www.bestwestern.co.uk/hotels/best-western-plus-manor-nec-birmingham-83947/
Best Western Plus Milford Hotel,,,,,https://www.bestwestern.co.uk/hotels/best-western-plus-milford-hotel-83728/
Best Western Plus Sheffield Mosborough Hall Hotel,,,,,https://www.bestwestern.co.uk/hotels/best-western-plus-mosborough-hall-hotel-83732/
Best Western Plus Nottingham City Centre,,,,,https://www.bestwestern.co.uk/hotels/best-western-plus-nottingham-city-centre-84221/
BW Plus Nottingham Westminster Hotel,,,,,https://www.bestwestern.co.uk/hotels/best-western-plus-nottingham-westminster-hotel-83383/
Best Western Plus Pastures Hotel,,,,,https://www.bestwestern.co.uk/hotels/best-western-plus-pastures-hotel-83889/
Best Western Plus Pinewood Manchester Airport-Wilmslow Hotel,,,,,https://www.bestwestern.co.uk/hotels/best-western-plus-pinewood-manchester-airport-wilmslow-hotel-83933/
Best Western Plus The Connaught Hotel & Spa,,,,,https://www.bestwestern.co.uk/hotels/best-western-plus-the-connaught-hotel-spa-83679/
Best Western Plus The Quays Hotel Sheffield,,,,,https://www.bestwestern.co.uk/hotels/best-western-plus-the-quays-hotel-sheffield-84317/
Best Western Plus Ullesthorpe Court Hotel & Golf Club,,,,,https://www.bestwestern.co.uk/hotels/best-western-plus-ullesthorpe-court-hotel-golf-club-83849/
Best Western Plus Vauxhall Hotel,,,,,https://www.bestwestern.co.uk/hotels/best-western-plus-vauxhall-hotel-84215/
Best Western Plus West Retford Hotel,,,,,https://www.bestwestern.co.uk/hotels/best-western-plus-west-retford-hotel-83857/
Best Western Plus White Horse Hotel,,,,,https://www.bestwestern.co.uk/hotels/best-western-plus-white-horse-hotel-84054/
Best Western Pontypool Metro Hotel,,,,,https://www.bestwestern.co.uk/hotels/best-western-pontypool-metro-hotel-83543/
Best Western Premier Dover Marina Hotel & Spa,,,,,https://www.bestwestern.co.uk/hotels/best-western-premier-dover-marina-hotel-spa-83926/
Best Western Premier Heronston Hotel & Spa,,,,,https://www.bestwestern.co.uk/hotels/best-western-premier-heronston-hotel-spa-83481/
Best Western Premier Doncaster Mount Pleasant Hotel,,,,,https://www.bestwestern.co.uk/hotels/best-western-premier-mount-pleasant-hotel-83733/
Best Western Premier Knowsley Suites Hotel & Spa,,,,,https://www.bestwestern.co.uk/hotels/best-western-premier-suites-hotel-spa-84386/
Error 1015,,,,,https://www.bestwestern.co.uk/hotels/best-western-princes-marine-hotel-83740/
Error 1015,,,,,https://www.bestwestern.co.uk/hotels/best-western-priory-hotel-83266/
Error 1015,,,,,https://www.bestwestern.co.uk/hotels/best-western-queens-hotel-83495/
Error 1015,,,,,https://www.bestwestern.co.uk/hotels/best-western-reading-calcot-hotel-84395/
Error 1015,,,,,https://www.bestwestern.co.uk/hotels/best-western-red-lion-hotel-83062/
Error 1015,,,,,https://www.bestwestern.co.uk/hotels/best-western-rockingham-forest-hotel-83907/
Error 1015,,,,,https://www.bestwestern.co.uk/hotels/best-western-royal-hotel-83745/
Error 1015,,,,,https://www.bestwestern.co.uk/hotels/best-western-sheffield-city-hotel-84399/
Error 1015,,,,,https://www.bestwestern.co.uk/hotels/best-western-ship-hotel-83913/
Error 1015,,,,,https://www.bestwestern.co.uk/hotels/best-western-swiss-cottage-hotel-83650/
Error 1015,,,,,https://www.bestwestern.co.uk/hotels/best-western-sysonby-knoll-hotel-83983/
Error 1015,,,,,https://www.bestwestern.co.uk/hotels/best-western-the-compass-inn-83340/
Error 1015,,,,,https://www.bestwestern.co.uk/hotels/best-western-the-crianlarich-hotel-83540/
Error 1015,,,,,https://www.bestwestern.co.uk/hotels/best-western-the-dartmouth-hotel-golf-spa-83978/
Error 1015,,,,,https://www.bestwestern.co.uk/hotels/best-western-the-gables-hotel-83878/
Error 1015,,,,,https://www.bestwestern.co.uk/hotels/best-western-the-george-hotel-83789/
Error 1015,,,,,https://www.bestwestern.co.uk/hotels/best-western-the-grand-hotel-hartlepool--84378/
Error 1015,,,,,https://www.bestwestern.co.uk/hotels/best-western-the-hatfield-hotel-84206/
Error 1015,,,,,https://www.bestwestern.co.uk/hotels/best-western-the-rose-crown-hotel-83744/
Error 1015,,,,,https://www.bestwestern.co.uk/hotels/best-western-the-royal-chase-hotel-83064/
Error 1015,,,,,https://www.bestwestern.co.uk/hotels/best-western-thurrock-hotel-84245/
Error 1015,,,,,https://www.bestwestern.co.uk/hotels/best-western-valley-hotel-83648/
Error 1015,,,,,https://www.bestwestern.co.uk/hotels/best-western-victoria-palace-83873/
Error 1015,,,,,https://www.bestwestern.co.uk/hotels/best-western-walton-park-hotel-83764/
Error 1015,,,,,https://www.bestwestern.co.uk/hotels/best-western-webbington-hotel-and-spa-83838/
Error 1015,,,,,https://www.bestwestern.co.uk/hotels/best-western-white-house-hotel-83770/
Error 1015,,,,,https://www.bestwestern.co.uk/hotels/best-western-york-house-hotel-83773/
Error 1015,,,,,https://www.bestwestern.co.uk/hotels/blunsdon-house-hotel-bw-premier-collection-by-best-western-83070/
Error 1015,,,,,https://www.bestwestern.co.uk/hotels/bournemouth-carlton-hotel-bw-signature-collection-by-best-western-84305/
Error 1015,,,,,https://www.bestwestern.co.uk/hotels/bournemouth-east-cliff-hotel-sure-hotel-collection-by-best-western-84306/
Error 1015,,,,,https://www.bestwestern.co.uk/hotels/bruntsfield-hotel-worldhotels-elite-83406/
Error 1015,,,,,https://www.bestwestern.co.uk/hotels/buchanan-arms-hotel-leisure-club-sure-hotel-collection-by-best-western-84372/
Error 1015,,,,,https://www.bestwestern.co.uk/hotels/burlington-hotel-bw-premier-collection-by-best-western-84226/
Error 1015,,,,,https://www.bestwestern.co.uk/hotels/carlisle-station-hotel-sure-hotel-collection-by-best-western-84314/
Error 1015,,,,,https://www.bestwestern.co.uk/hotels/casa-hotel-sure-hotel-collection-by-best-western-84398/
Error 1015,,,,,https://www.bestwestern.co.uk/hotels/casa-mere-manchester-sure-hotel-collection-by-best-western-84345/
Error 1015,,,,,https://www.bestwestern.co.uk/hotels/castle-bromwich-hall-hotel-sure-hotel-collection-by-best-western-84283/
Error 1015,,,,,https://www.bestwestern.co.uk/hotels/castle-green-hotel-in-kendal-bw-premier-collection-by-best-western-83674/
Error 1015,,,,,https://www.bestwestern.co.uk/hotels/crabwall-manor-spa-bw-signature-collection-by-best-western-84377/
Error 1015,,,,,https://www.bestwestern.co.uk/hotels/cricklade-house-hotel-sure-hotel-collection-by-best-western-56110/
Error 1015,,,,,https://www.bestwestern.co.uk/hotels/derby-mickleover-hotel-bw-signature-collection-by-best-western-84307/
Error 1015,,,,,https://www.bestwestern.co.uk/hotels/dockside-aparthotel-bw-signature-collection-by-best-western-84392/
Error 1015,,,,,https://www.bestwestern.co.uk/hotels/dryfesdale-hotel-bw-signature-collection-by-best-western-84368/
Error 1015,,,,,https://www.bestwestern.co.uk/hotels/eccleston-arms-bw-signature-collection-by-best-western-84332/
Error 1015,,,,,https://www.bestwestern.co.uk/hotels/embassy-newcastle-sure-hotel-collection-by-best-western-84346/
Error 1015,,,,,https://www.bestwestern.co.uk/hotels/fortune-huddersfield-sure-hotel-collection-by-best-western-84347/
Error 1015,,,,,https://www.bestwestern.co.uk/hotels/forty-seven-hotel-worldhotels-crafted-84402/
Error 1015,,,,,https://www.bestwestern.co.uk/hotels/garstang-country-hotel-and-golf-club-sure-hotel-collection-by-best-western-83877/
Error 1015,,,,,https://www.bestwestern.co.uk/hotels/george-hotel-bw-signature-collection-by-best-western-83651/
Error 1015,,,,,https://www.bestwestern.co.uk/hotels/glasgow-argyle-hotel-bw-signature-collection-by-best-western-83557/
Error 1015,,,,,https://www.bestwestern.co.uk/hotels/gleddoch-golf-spa-resort-worldhotels-distinctive-83547/
Error 1015,,,,,https://www.bestwestern.co.uk/hotels/glendower-hotel-bw-signature-collection-by-best-western-83699/
Error 1015,,,,,https://www.bestwestern.co.uk/hotels/gloucester-robinswood-hotel-bw-signature-collection-by-best-western-84296/
Error 1015,,,,,https://www.bestwestern.co.uk/hotels/hall-garth-hotel-darlington-sure-hotel-collection-by-best-western-84343/
Error 1015,,,,,https://www.bestwestern.co.uk/hotels/hellaby-hall-hotel-bw-signature-collection-by-best-western-84218/
Error 1015,,,,,https://www.bestwestern.co.uk/hotels/hotel-collingwood-bw-signature-collection-by-best-western-56104/
Error 1015,,,,,https://www.bestwestern.co.uk/hotels/hotel-st-pierre-sure-hotel-collection-by-best-western-83901/
Error 1015,,,,,https://www.bestwestern.co.uk/hotels/hull-humber-view-hotel-bw-signature-collection-by-best-western-84311/
Error 1015,,,,,https://www.bestwestern.co.uk/hotels/invercarse-hotel-bw-signature-collection-by-best-western-83440/
Error 1015,,,,,https://www.bestwestern.co.uk/hotels/ivy-hill-hotel-sure-hotel-collection-by-best-western-83852/
Error 1015,,,,,https://www.bestwestern.co.uk/hotels/judds-folly-hotel-sure-hotel-collection-by-best-western-84264/
Error 1015,,,,,https://www.bestwestern.co.uk/hotels/kingsmills-hotel-worldhotels-elite-83560/
Error 1015,,,,,https://www.bestwestern.co.uk/hotels/leigh-park-country-house-hotel-vineyard-bw-signature-collection-by-best-western-83721/
Error 1015,,,,,https://www.bestwestern.co.uk/hotels/linton-lodge-hotel-bw-signature-collection-by-best-western-83647/
Error 1015,,,,,https://www.bestwestern.co.uk/hotels/london-chigwell-prince-regent-hotel-bw-signature-collection-by-best-western-84320/
Error 1015,,,,,https://www.bestwestern.co.uk/hotels/london-croydon-aerodrome-hotel-bw-signature-collection-by-best-western-84326/
Error 1015,,,,,https://www.bestwestern.co.uk/hotels/lord-haldon-country-hotel-sure-hotel-collection-by-best-western-83874/
Error 1015,,,,,https://www.bestwestern.co.uk/hotels/lord-street-hotel-bw-signature-collection-by-best-western-84331/
Error 1015,,,,,https://www.bestwestern.co.uk/hotels/moor-hall-hotel-spa-bw-premier-collection-by-best-western-83007/
Error 1015,,,,,https://www.bestwestern.co.uk/hotels/mornington-london-kensington-bw-premier-collection-by-best-western-83897/
Error 1015,,,,,https://www.bestwestern.co.uk/hotels/ness-walk-worldhotels-luxury-83561/
Error 1015,,,,,https://www.bestwestern.co.uk/hotels/new-continental-hotel-sure-hotel-collection-by-best-western-84281/
Error 1015,,,,,https://www.bestwestern.co.uk/hotels/normanton-park-hotel-sure-hotel-collection-by-best-western-83880/
Error 1015,,,,,https://www.bestwestern.co.uk/hotels/oaklands-hall-hotel-sure-hotel-collection-by-best-western-83943/
Error 1015,,,,,https://www.bestwestern.co.uk/hotels/orchid-epsom-sure-hotel-collection-by-best-western-84348/
Error 1015,,,,,https://www.bestwestern.co.uk/hotels/parkmore-hotel-leisure-club-sure-hotel-collection-by-best-western-83106/
Error 1015,,,,,https://www.bestwestern.co.uk/hotels/philipburn-hotel-bw-signature-collection-by-best-western-83532/
Error 1015,,,,,https://www.bestwestern.co.uk/hotels/pitbauchlie-house-hotel-sure-hotel-collection-by-best-western-83559/
Error 1015,,,,,https://www.bestwestern.co.uk/hotels/plaza-chorley-sure-hotel-collection-by-best-western-84349/
Error 1015,,,,,https://www.bestwestern.co.uk/hotels/porth-veor-manor-sure-hotel-collection-by-best-western-83975/
Error 1015,,,,,https://www.bestwestern.co.uk/hotels/putney-hotel-bw-signature-collection-by-best-western-84258/
Error 1015,,,,,https://www.bestwestern.co.uk/hotels/queensway-hotel-sure-hotel-collection-by-best-western-84273/
Error 1015,,,,,https://www.bestwestern.co.uk/hotels/roker-hotel-bw-premier-collection-by-best-western-83888/
Error 1015,,,,,https://www.bestwestern.co.uk/hotels/southcrest-manor-hotel-bw-signature-collection-by-best-western-84339/
Error 1015,,,,,https://www.bestwestern.co.uk/hotels/st-james-hotel-bw-premier-collection-by-best-western-84322/
Error 1015,,,,,https://www.bestwestern.co.uk/hotels/sure-hotel-by-best-western-calais-coquelles-tunnel-s-manche-93911/
Error 1015,,,,,https://www.bestwestern.co.uk/hotels/sure-hotel-by-best-western-lockerbie-83550/
Error 1015,,,,,https://www.bestwestern.co.uk/hotels/sure-hotel-by-best-western-reading-84271/
Error 1015,,,,,https://www.bestwestern.co.uk/hotels/ten-hill-place-hotel-worldhotels-distinctive-84207/
Error 1015,,,,,https://www.bestwestern.co.uk/hotels/thames-riviera-hotel-sure-hotel-collection-by-best-western-84382/
Error 1015,,,,,https://www.bestwestern.co.uk/hotels/the-barn-hotel-spa-sure-hotel-collection-by-best-western-84323/
Error 1015,,,,,https://www.bestwestern.co.uk/hotels/the-bold-hotel-bw-signature-collection-by-best-western-84330/
Error 1015,,,,,https://www.bestwestern.co.uk/hotels/the-bridge-house-bw-signature-collection-by-best-western-84335/
Error 1015,,,,,https://www.bestwestern.co.uk/hotels/the-bull-hotel-sure-hotel-collection-by-best-western-84253/
Error 1015,,,,,https://www.bestwestern.co.uk/hotels/the-craiglands-hotel-sure-hotel-collection-by-best-western-84222/
Error 1015,,,,,https://www.bestwestern.co.uk/hotels/the-croft-hotel-bw-signature-collection-by-best-western-84208/
Error 1015,,,,,https://www.bestwestern.co.uk/hotels/the-crown-london-worldhotels-distinctive-84364/
Error 1015,,,,,https://www.bestwestern.co.uk/hotels/the-inveraray-inn-bw-signature-collection-by-best-western-83551/
Error 1015,,,,,https://www.bestwestern.co.uk/hotels/the-jephson-hotel-bw-signature-collection-by-best-western-84342/
Error 1015,,,,,https://www.bestwestern.co.uk/hotels/the-kings-arms-worldhotels-distinctive-84400/
Error 1015,,,,,https://www.bestwestern.co.uk/hotels/the-lakeland-kendal-hotel-sure-hotel-collection-by-best-western-84393/
Error 1015,,,,,https://www.bestwestern.co.uk/hotels/the-magnum-hotel-sunderland-sure-hotel-collection-by-best-western-84390/
Error 1015,,,,,https://www.bestwestern.co.uk/hotels/the-merchants-house-bw-signature-collection-by-best-western-84356/
Error 1015,,,,,https://www.bestwestern.co.uk/hotels/the-milestone-peterborough-hotel-sure-hotel-collection-by-best-western-84350/
Error 1015,,,,,https://www.bestwestern.co.uk/hotels/the-monterey-hotel-sure-hotel-collection-by-best-western-84276/
Error 1015,,,,,https://www.bestwestern.co.uk/hotels/the-olde-bell-bw-signature-collection-by-best-western-84381/
Error 1015,,,,,https://www.bestwestern.co.uk/hotels/the-queen-at-chester-hotel-bw-premier-collection-by-best-western-84298/
Error 1015,,,,,https://www.bestwestern.co.uk/hotels/the-riverside-worldhotels-distinctive-84357/
Error 1015,,,,,https://www.bestwestern.co.uk/hotels/the-stuart-hotel-sure-hotel-collection-by-best-western-83971/
Error 1015,,,,,https://www.bestwestern.co.uk/hotels/the-watermill-hotel-sure-hotel-collection-by-best-western-84247/
Error 1015,,,,,https://www.bestwestern.co.uk/hotels/the-welcombe-hotel-bw-premier-collection-by-best-western-84318/
Error 1015,,,,,https://www.bestwestern.co.uk/hotels/velvet-hotel-worldhotels-crafted-84401/
Error 1015,,,,,https://www.bestwestern.co.uk/hotels/walworth-castle-hotel-bw-signature-collection-by-best-western-83869/
Error 1015,,,,,https://www.bestwestern.co.uk/hotels/weston-hall-hotel-sure-hotel-collection-by-best-western-83768/
Error 1015,,,,,https://www.bestwestern.co.uk/hotels/windmill-village-hotel-golf-club-spa-bw-signature-collection-by-best-western-83934/
Error 1015,,,,,https://www.bestwestern.co.uk/hotels/woodlands-hotel-bw-signature-collection-by-best-western-83507/
Error 1015,,,,,https://www.bestwestern.co.uk/hotels/woughton-house-hotel-worldhotels-distinctive-84353/
Error 1015,,,,,https://www.bestwestern.co.uk/hotels/york-pavilion-hotel-sure-hotel-collection-by-best-western-83287/
